CCSDS_OMM_VERS = 2.0
CREATION_DATE  = 
ORIGINATOR     = 

OBJECT_NAME    = FENGYUN 4C
OBJECT_ID      = 2025-312A
CENTER_NAME    = EARTH
REF_FRAME      = TEME
TIME_SYSTEM    = UTC
MEAN_ELEMENT_THEORY = SGP/SGP4

EPOCH          = 2026-01-07T21:50:02.423328
MEAN_MOTION    = 1.00273606
ECCENTRICITY   = .00030758
INCLINATION    = 0.0901
RA_OF_ASC_NODE = 248.6284
ARG_OF_PERICENTER = 53.6207
MEAN_ANOMALY   = 265.7543

EPHEMERIS_TYPE = 0
CLASSIFICATION_TYPE = U
NORAD_CAT_ID   = 67246
ELEMENT_SET_NO = 999
REV_AT_EPOCH   = 17
BSTAR          = 0
MEAN_MOTION_DOT = -.319E-5
MEAN_MOTION_DDOT = 0

CCSDS_OMM_VERS = 2.0
CREATION_DATE  = 
ORIGINATOR     = 

OBJECT_NAME    = CZ-3B R/B
OBJECT_ID      = 2025-312B
CENTER_NAME    = EARTH
REF_FRAME      = TEME
TIME_SYSTEM    = UTC
MEAN_ELEMENT_THEORY = SGP/SGP4

EPOCH          = 2026-01-07T13:02:51.602784
MEAN_MOTION    = 2.41411554
ECCENTRICITY   = .72251878
INCLINATION    = 28.4254
RA_OF_ASC_NODE = 329.6721
ARG_OF_PERICENTER = 186.5396
MEAN_ANOMALY   = 152.5147

EPHEMERIS_TYPE = 0
CLASSIFICATION_TYPE = U
NORAD_CAT_ID   = 67247
ELEMENT_SET_NO = 999
REV_AT_EPOCH   = 28
BSTAR          = .60911568E-3
MEAN_MOTION_DOT = .183334E-2
MEAN_MOTION_DDOT = .1096937E-5

CCSDS_OMM_VERS = 2.0
CREATION_DATE  = 
ORIGINATOR     = 

OBJECT_NAME    = TIANHUI 7
OBJECT_ID      = 2025-314A
CENTER_NAME    = EARTH
REF_FRAME      = TEME
TIME_SYSTEM    = UTC
MEAN_ELEMENT_THEORY = SGP/SGP4

EPOCH          = 2026-01-08T03:21:31.038912
MEAN_MOTION    = 15.25383404
ECCENTRICITY   = .0001393
INCLINATION    = 97.4205
RA_OF_ASC_NODE = 85.2818
ARG_OF_PERICENTER = 102.4970
MEAN_ANOMALY   = 257.6424

EPHEMERIS_TYPE = 0
CLASSIFICATION_TYPE = U
NORAD_CAT_ID   = 67300
ELEMENT_SET_NO = 999
REV_AT_EPOCH   = 138
BSTAR          = .82629E-4
MEAN_MOTION_DOT = .2013E-4
MEAN_MOTION_DDOT = 0

CCSDS_OMM_VERS = 2.0
CREATION_DATE  = 
ORIGINATOR     = 

OBJECT_NAME    = CZ-4B R/B
OBJECT_ID      = 2025-314B
CENTER_NAME    = EARTH
REF_FRAME      = TEME
TIME_SYSTEM    = UTC
MEAN_ELEMENT_THEORY = SGP/SGP4

EPOCH          = 2026-01-07T12:30:26.356896
MEAN_MOTION    = 15.67809367
ECCENTRICITY   = .01447514
INCLINATION    = 97.3678
RA_OF_ASC_NODE = 85.1642
ARG_OF_PERICENTER = 346.7305
MEAN_ANOMALY   = 13.0164

EPHEMERIS_TYPE = 0
CLASSIFICATION_TYPE = U
NORAD_CAT_ID   = 67301
ELEMENT_SET_NO = 999
REV_AT_EPOCH   = 127
BSTAR          = .36887192E-3
MEAN_MOTION_DOT = .72855E-3
MEAN_MOTION_DDOT = .3661274E-5

CCSDS_OMM_VERS = 2.0
CREATION_DATE  = 
ORIGINATOR     = 

OBJECT_NAME    = 2025-315A
OBJECT_ID      = 2025-315A
CENTER_NAME    = EARTH
REF_FRAME      = TEME
TIME_SYSTEM    = UTC
MEAN_ELEMENT_THEORY = SGP/SGP4

EPOCH          = 2025-12-31T14:33:49.080384
MEAN_MOTION    = 2.27864601
ECCENTRICITY   = .72957684
INCLINATION    = 19.4970
RA_OF_ASC_NODE = 100.4602
ARG_OF_PERICENTER = 180.0375
MEAN_ANOMALY   = 168.0127

EPHEMERIS_TYPE = 0
CLASSIFICATION_TYPE = U
NORAD_CAT_ID   = 67302
ELEMENT_SET_NO = 999
REV_AT_EPOCH   = 2
BSTAR          = .11928835E-2
MEAN_MOTION_DOT = .8137E-4
MEAN_MOTION_DDOT = 0

CCSDS_OMM_VERS = 2.0
CREATION_DATE  = 
ORIGINATOR     = 

OBJECT_NAME    = CZ-7A R/B
OBJECT_ID      = 2025-315B
CENTER_NAME    = EARTH
REF_FRAME      = TEME
TIME_SYSTEM    = UTC
MEAN_ELEMENT_THEORY = SGP/SGP4

EPOCH          = 2026-01-07T05:32:07.599264
MEAN_MOTION    = 2.41613499
ECCENTRICITY   = .7211102
INCLINATION    = 19.5354
RA_OF_ASC_NODE = 97.6678
ARG_OF_PERICENTER = 184.2735
MEAN_ANOMALY   = 161.8192

EPHEMERIS_TYPE = 0
CLASSIFICATION_TYPE = U
NORAD_CAT_ID   = 67303
ELEMENT_SET_NO = 999
REV_AT_EPOCH   = 18
BSTAR          = .319759E-2
MEAN_MOTION_DOT = .136328E-2
MEAN_MOTION_DDOT = .20486E-7

CCSDS_OMM_VERS = 2.0
CREATION_DATE  = 
ORIGINATOR     = 

OBJECT_NAME    = CSG-3
OBJECT_ID      = 2026-001A
CENTER_NAME    = EARTH
REF_FRAME      = TEME
TIME_SYSTEM    = UTC
MEAN_ELEMENT_THEORY = SGP/SGP4

EPOCH          = 2026-01-07T23:56:57.193152
MEAN_MOTION    = 14.81521833
ECCENTRICITY   = .00038818
INCLINATION    = 97.8611
RA_OF_ASC_NODE = 194.0172
ARG_OF_PERICENTER = 161.1477
MEAN_ANOMALY   = 198.9881

EPHEMERIS_TYPE = 0
CLASSIFICATION_TYPE = U
NORAD_CAT_ID   = 67304
ELEMENT_SET_NO = 999
REV_AT_EPOCH   = 73
BSTAR          = .53366919E-4
MEAN_MOTION_DOT = .367E-5
MEAN_MOTION_DDOT = 0

