FENGYUN 4C              
1 67246U 25312A   26007.90975027 -.00000319  00000+0  00000+0 0  9994
2 67246   0.0901 248.6284 0003075  53.6207 265.7543  1.00273606   174
CZ-3B R/B               
1 67247U 25312B   26007.54365281  .00183334  10969-5  60912-3 0  9991
2 67247  28.4254 329.6721 7225187 186.5396 152.5147  2.41411554   285
TIANHUI 7               
1 67300U 25314A   26008.13994258  .00002013  00000+0  82629-4 0  9994
2 67300  97.4205  85.2818 0001393 102.4970 257.6424 15.25383404  1383
CZ-4B R/B               
1 67301U 25314B   26007.52113839  .00072855  36613-5  36887-3 0  9995
2 67301  97.3678  85.1642 0144751 346.7305  13.0164 15.67809367  1272
2025-315A               
1 67302U 25315A   25365.60681806  .00008137  00000+0  11929-2 0  9992
2 67302  19.4970 100.4602 7295768 180.0375 168.0127  2.27864601    24
CZ-7A R/B               
1 67303U 25315B   26007.23064351  .00136328  20486-7  31976-2 0  9992
2 67303  19.5354  97.6678 7211102 184.2735 161.8192  2.41613499   181
CSG-3                   
1 67304U 26001A   26007.99788418  .00000367  00000+0  53367-4 0  9991
2 67304  97.8611 194.0172 0003881 161.1477 198.9881 14.81521833   735
